start=new Date('2023-05-16T00:00:00.000Z').valueOf();
sats=[{"TIME_SYSTEM":"UTC","TLE_LINE2":"2 52502  53.2160 340.3427 0001495  79.3413 280.7747 15.08841072 57128","GP_ID":"231895913","SITE":"AFETR","EPHEMERIS_TYPE":"0","OBJECT_ID":"2022-049BD","SEMIMAJOR_AXIS":"6917.877","RCS_SIZE":"LARGE","MEAN_MOTION_DOT":"0.00001827","REV_AT_EPOCH":"5712","EPOCH":"2023-05-15T06:45:14.666400","MEAN_ANOMALY":"280.7747","OBJECT_NAME":"STARLINK-3912","FILE":"3908681","COUNTRY_CODE":"US","BSTAR":"0.00013287000000","NORAD_CAT_ID":"52502","CENTER_NAME":"EARTH","INCLINATION":"53.2160","RA_OF_ASC_NODE":"340.3427","ECCENTRICITY":"0.00014950","ARG_OF_PERICENTER":"79.3413","OBJECT_TYPE":"PAYLOAD","MEAN_MOTION":"15.08841072","PERIAPSIS":"538.708","CLASSIFICATION_TYPE":"U","PERIOD":"95.437","DECAY_DATE":null,"LAUNCH_DATE":"2022-05-06","ELEMENT_SET_NO":"999","APOAPSIS":"540.776","MEAN_ELEMENT_THEORY":"SGP4","MEAN_MOTION_DDOT":"0.0000000000000","TLE_LINE1":"1 52502U 22049BD  23135.28141975  .00001827  00000-0  13287-3 0  9994","REF_FRAME":"TEME"},{"EPOCH":"2023-05-15T19:35:00.673728","MEAN_ANOMALY":"279.3392","OBJECT_NAME":"STARLINK-3861","OBJECT_ID":"2022-049BE","MEAN_MOTION_DOT":"0.00001691","RCS_SIZE":"LARGE","SEMIMAJOR_AXIS":"6917.873","REV_AT_EPOCH":"5720","EPHEMERIS_TYPE":"0","TLE_LINE2":"2 52503  53.2165 337.9656 0001441  80.7763 279.3392 15.08842363 57208","TIME_SYSTEM":"UTC","GP_ID":"231927724","SITE":"AFETR","TLE_LINE1":"1 52503U 22049BE  23135.81598002  .00001691  00000-0  12431-3 0  9990","MEAN_MOTION_DDOT":"0.0000000000000","REF_FRAME":"TEME","DECAY_DATE":null,"LAUNCH_DATE":"2022-05-06","ELEMENT_SET_NO":"999","MEAN_ELEMENT_THEORY":"SGP4","APOAPSIS":"540.735","ARG_OF_PERICENTER":"80.7763","RA_OF_ASC_NODE":"337.9656","ECCENTRICITY":"0.00014410","INCLINATION":"53.2165","OBJECT_TYPE":"PAYLOAD","PERIAPSIS":"538.741","MEAN_MOTION":"15.08842363","PERIOD":"95.437","CLASSIFICATION_TYPE":"U","FILE":"3908892","BSTAR":"0.00012431000000","COUNTRY_CODE":"US","CENTER_NAME":"EARTH","NORAD_CAT_ID":"52503"},{"PERIAPSIS":"538.905","MEAN_MOTION":"15.08851333","PERIOD":"95.437","CLASSIFICATION_TYPE":"U","ARG_OF_PERICENTER":"96.7802","RA_OF_ASC_NODE":"69.2542","ECCENTRICITY":"0.00011650","INCLINATION":"53.2167","OBJECT_TYPE":"PAYLOAD","CENTER_NAME":"EARTH","NORAD_CAT_ID":"52533","FILE":"3908892","BSTAR":"-0.00000957050000","COUNTRY_CODE":"US","REF_FRAME":"TEME","TLE_LINE1":"1 52533U 22051A   23135.54914142 -.00000440  00000-0 -95705-5 0  9993","MEAN_MOTION_DDOT":"0.0000000000000","ELEMENT_SET_NO":"999","MEAN_ELEMENT_THEORY":"SGP4","APOAPSIS":"540.517","LAUNCH_DATE":"2022-05-13","DECAY_DATE":null,"EPHEMERIS_TYPE":"0","TLE_LINE2":"2 52533  53.2167  69.2542 0001165  96.7802 263.3323 15.08851333 56074","TIME_SYSTEM":"UTC","GP_ID":"231927224","SITE":"AFWTR","MEAN_ANOMALY":"263.3323","OBJECT_NAME":"STARLINK-3951","EPOCH":"2023-05-15T13:10:45.818688","REV_AT_EPOCH":"5607","OBJECT_ID":"2022-051A","MEAN_MOTION_DOT":"-0.00000440","RCS_SIZE":"LARGE","SEMIMAJOR_AXIS":"6917.846"},{"REV_AT_EPOCH":"5681","OBJECT_ID":"2022-051B","SEMIMAJOR_AXIS":"6917.802","MEAN_MOTION_DOT":"-0.00005409","RCS_SIZE":"LARGE","MEAN_ANOMALY":"289.4786","OBJECT_NAME":"STARLINK-3952","EPOCH":"2023-05-15T13:00:08.367264","TIME_SYSTEM":"UTC","TLE_LINE2":"2 52534  53.2187  69.1424 0001377  70.6355 289.4786 15.08865513 56813","GP_ID":"231925980","SITE":"AFWTR","EPHEMERIS_TYPE":"0","ELEMENT_SET_NO":"999","APOAPSIS":"540.620","MEAN_ELEMENT_THEORY":"SGP4","DECAY_DATE":null,"LAUNCH_DATE":"2022-05-13","REF_FRAME":"TEME","TLE_LINE1":"1 52534U 22051B   23135.54176351 -.00005409  00000-0 -32175-3 0  9996","MEAN_MOTION_DDOT":"0.0000000000000","NORAD_CAT_ID":"52534","CENTER_NAME":"EARTH","FILE":"3908892","COUNTRY_CODE":"US","BSTAR":"-0.00032175000000","MEAN_MOTION":"15.08865513","PERIAPSIS":"538.715","CLASSIFICATION_TYPE":"U","PERIOD":"95.436","RA_OF_ASC_NODE":"69.1424","INCLINATION":"53.2187","ECCENTRICITY":"0.00013770","ARG_OF_PERICENTER":"70.6355","OBJECT_TYPE":"PAYLOAD"},{"MEAN_MOTION_DDOT":"0.0000000000000","TLE_LINE1":"1 52535U 22051C   23135.53809318  .00001345  00000-0  10256-3 0  9991","REF_FRAME":"TEME","LAUNCH_DATE":"2022-05-13","DECAY_DATE":null,"APOAPSIS":"540.674","MEAN_ELEMENT_THEORY":"SGP4","ELEMENT_SET_NO":"999","OBJECT_TYPE":"PAYLOAD","INCLINATION":"53.2179","RA_OF_ASC_NODE":"69.1636","ECCENTRICITY":"0.00013540","ARG_OF_PERICENTER":"94.9240","CLASSIFICATION_TYPE":"U","PERIOD":"95.437","MEAN_MOTION":"15.08842594","PERIAPSIS":"538.801","COUNTRY_CODE":"US","BSTAR":"0.00010256000000","FILE":"3908681","NORAD_CAT_ID":"52535","CENTER_NAME":"EARTH","EPOCH":"2023-05-15T12:54:51.250752","OBJECT_NAME":"STARLINK-3958","MEAN_ANOMALY":"265.1907","SEMIMAJOR_AXIS":"6917.872","MEAN_MOTION_DOT":"0.00001345","RCS_SIZE":"LARGE","OBJECT_ID":"2022-051C","REV_AT_EPOCH":"5607","EPHEMERIS_TYPE":"0","GP_ID":"231896168","SITE":"AFWTR","TIME_SYSTEM":"UTC","TLE_LINE2":"2 52535  53.2179  69.1636 0001354  94.9240 265.1907 15.08842594 56075"},{"REF_FRAME":"TEME","MEAN_MOTION_DDOT":"0.0000000000000","TLE_LINE1":"1 52536U 22051D   23135.53441461 -.00000181  00000-0  67331-5 0  9999","APOAPSIS":"540.614","MEAN_ELEMENT_THEORY":"SGP4","ELEMENT_SET_NO":"999","LAUNCH_DATE":"2022-05-13","DECAY_DATE":null,"CLASSIFICATION_TYPE":"U","PERIOD":"95.437","MEAN_MOTION":"15.08842992","PERIAPSIS":"538.858","OBJECT_TYPE":"PAYLOAD","ECCENTRICITY":"0.00012690","RA_OF_ASC_NODE":"69.1768","INCLINATION":"53.2175","ARG_OF_PERICENTER":"84.5014","NORAD_CAT_ID":"52536","CENTER_NAME":"EARTH","COUNTRY_CODE":"US","BSTAR":"0.00000673310000","FILE":"3908681","OBJECT_NAME":"STARLINK-3964","MEAN_ANOMALY":"275.6123","EPOCH":"2023-05-15T12:49:33.422304","REV_AT_EPOCH":"5607","SEMIMAJOR_AXIS":"6917.871","MEAN_MOTION_DOT":"-0.00000181","RCS_SIZE":"LARGE","OBJECT_ID":"2022-051D","EPHEMERIS_TYPE":"0","GP_ID":"231895914","SITE":"AFWTR","TIME_SYSTEM":"UTC","TLE_LINE2":"2 52536  53.2175  69.1768 0001269  84.5014 275.6123 15.08842992 56075"},{"LAUNCH_DATE":"2022-05-13","DECAY_DATE":null,"ELEMENT_SET_NO":"999","MEAN_ELEMENT_THEORY":"SGP4","APOAPSIS":"540.644","TLE_LINE1":"1 52537U 22051E   23135.53073024  .00000188  00000-0  29901-4 0  9992","MEAN_MOTION_DDOT":"0.0000000000000","REF_FRAME":"TEME","FILE":"3908681","BSTAR":"0.00002990100000","COUNTRY_CODE":"US","CENTER_NAME":"EARTH","NORAD_CAT_ID":"52537","ARG_OF_PERICENTER":"84.2087","RA_OF_ASC_NODE":"69.1918","INCLINATION":"53.2167","ECCENTRICITY":"0.00013420","OBJECT_TYPE":"PAYLOAD","PERIAPSIS":"538.787","MEAN_MOTION":"15.08849873","PERIOD":"95.437","CLASSIFICATION_TYPE":"U","OBJECT_ID":"2022-051E","MEAN_MOTION_DOT":"0.00000188","RCS_SIZE":"LARGE","SEMIMAJOR_AXIS":"6917.850","REV_AT_EPOCH":"5607","EPOCH":"2023-05-15T12:44:15.092736","MEAN_ANOMALY":"275.9058","OBJECT_NAME":"STARLINK-3897","TLE_LINE2":"2 52537  53.2167  69.1918 0001342  84.2087 275.9058 15.08849873 56078","TIME_SYSTEM":"UTC","SITE":"AFWTR","GP_ID":"231895167","EPHEMERIS_TYPE":"0"},{"DECAY_DATE":null,"LAUNCH_DATE":"2022-05-13","APOAPSIS":"540.492","MEAN_ELEMENT_THEORY":"SGP4","ELEMENT_SET_NO":"999","TLE_LINE1":"1 52538U 22051F   23135.52336925  .00002157  00000-0  15356-3 0  9990","MEAN_MOTION_DDOT":"0.0000000000000","REF_FRAME":"TEME","COUNTRY_CODE":"US","BSTAR":"0.00015356000000","FILE":"3908681","NORAD_CAT_ID":"52538","CENTER_NAME":"EARTH","OBJECT_TYPE":"PAYLOAD","RA_OF_ASC_NODE":"69.2237","ECCENTRICITY":"0.00011040","INCLINATION":"53.2172","ARG_OF_PERICENTER":"88.9566","CLASSIFICATION_TYPE":"U","PERIOD":"95.437","MEAN_MOTION":"15.08845643","PERIAPSIS":"538.964","SEMIMAJOR_AXIS":"6917.863","RCS_SIZE":"LARGE","MEAN_MOTION_DOT":"0.00002157","OBJECT_ID":"2022-051F","REV_AT_EPOCH":"5607","EPOCH":"2023-05-15T12:33:39.103200","OBJECT_NAME":"STARLINK-3933","MEAN_ANOMALY":"271.1553","GP_ID":"231895417","SITE":"AFWTR","TIME_SYSTEM":"UTC","TLE_LINE2":"2 52538  53.2172  69.2237 0001104  88.9566 271.1553 15.08845643 56078","EPHEMERIS_TYPE":"0"},{"PERIAPSIS":"538.771","MEAN_MOTION":"15.08841146","PERIOD":"95.437","CLASSIFICATION_TYPE":"U","ARG_OF_PERICENTER":"105.8527","ECCENTRICITY":"0.00014030","RA_OF_ASC_NODE":"69.2149","INCLINATION":"53.2175","OBJECT_TYPE":"PAYLOAD","CENTER_NAME":"EARTH","NORAD_CAT_ID":"52539","FILE":"3908681","BSTAR":"0.00001984000000","COUNTRY_CODE":"US","REF_FRAME":"TEME","TLE_LINE1":"1 52539U 22051G   23135.52705465  .00000028  00000-0  19840-4 0  9998","MEAN_MOTION_DDOT":"0.0000000000000","ELEMENT_SET_NO":"999","MEAN_ELEMENT_THEORY":"SGP4","APOAPSIS":"540.712","DECAY_DATE":null,"LAUNCH_DATE":"2022-05-13","EPHEMERIS_TYPE":"0","TLE_LINE2":"2 52539  53.2175  69.2149 0001403 105.8527 254.2620 15.08841146 56073","TIME_SYSTEM":"UTC","GP_ID":"231895668","SITE":"AFWTR","MEAN_ANOMALY":"254.2620","OBJECT_NAME":"STARLINK-3757","EPOCH":"2023-05-15T12:38:57.521760","REV_AT_EPOCH":"5607","OBJECT_ID":"2022-051G","MEAN_MOTION_DOT":"0.00000028","RCS_SIZE":"LARGE","SEMIMAJOR_AXIS":"6917.877"},{"TLE_LINE1":"1 52540U 22051H   23135.51233048  .00001296  00000-0  99494-4 0  9993","MEAN_MOTION_DDOT":"0.0000000000000","REF_FRAME":"TEME","LAUNCH_DATE":"2022-05-13","DECAY_DATE":null,"MEAN_ELEMENT_THEORY":"SGP4","APOAPSIS":"540.468","ELEMENT_SET_NO":"999","OBJECT_TYPE":"PAYLOAD","ARG_OF_PERICENTER":"78.7501","ECCENTRICITY":"0.00010790","RA_OF_ASC_NODE":"69.2781","INCLINATION":"53.2161","PERIOD":"95.437","CLASSIFICATION_TYPE":"U","PERIAPSIS":"538.975","MEAN_MOTION":"15.08847808","BSTAR":"0.00009949400000","COUNTRY_CODE":"US","FILE":"3908681","CENTER_NAME":"EARTH","NORAD_CAT_ID":"52540","EPOCH":"2023-05-15T12:17:45.353472","OBJECT_NAME":"STARLINK-3940","MEAN_ANOMALY":"281.3612","RCS_SIZE":"LARGE","MEAN_MOTION_DOT":"0.00001296","SEMIMAJOR_AXIS":"6917.857","OBJECT_ID":"2022-051H","REV_AT_EPOCH":"5607","EPHEMERIS_TYPE":"0","SITE":"AFWTR","GP_ID":"231896415","TLE_LINE2":"2 52540  53.2161  69.2781 0001079  78.7501 281.3612 15.08847808 56074","TIME_SYSTEM":"UTC"}];
